H1 CPF  1  SGF 2022  2  8  2  5391 larets    
H2  0304206 5557    27944 2022  2  7  0  0  0 2022  2 12 23 57  0   180 1 1  0 0 0
H9
10 0 59620  47520.00000  0   5815195.569   1829151.781   3576222.895
10 0 59620  47700.00000  0   6439342.304   1701402.964   2369188.505
10 0 59620  47880.00000  0   6825413.611   1498633.984   1075531.032
10 0 59620  48060.00000  0   6957582.720   1234656.790   -257454.765
10 0 59620  48240.00000  0   6829696.876    925807.689  -1581029.459
10 0 59620  48420.00000  0   6445555.336    590088.894  -2846826.973
10 0 59620  48600.00000  0   5818779.811    246243.343  -4008651.147
10 0 59620  48780.00000  0   4972285.248    -87185.569  -5024176.673
10 0 59620  48960.00000  0   3937381.455   -392762.409  -5856478.680
10 0 59620  49140.00000  0   2752564.640   -654991.859  -6475339.194
10 0 59620  49320.00000  0   1462052.120   -861040.243  -6858297.818
10 0 59620  49500.00000  0    114124.694  -1001316.485  -6991418.513
10 0 59620  49680.00000  0  -1240664.961  -1069892.484  -6869767.369
10 0 59620  49860.00000  0  -2551362.245  -1064748.204  -6497593.014
10 0 59620  50040.00000  0  -3768504.366   -987834.148  -5888204.554
10 0 59620  50220.00000  0  -4845979.618   -844948.927  -5063550.773
10 0 59620  50400.00000  0  -5742803.018   -645434.526  -4053497.343
10 0 59620  50580.00000  0  -6424734.942   -401698.368  -2894804.118
10 0 59620  50760.00000  0  -6865672.210   -128577.392  -1629820.981
10 0 59620  50940.00000  0  -7048736.876    157428.355   -304938.656
10 0 59620  51120.00000  0  -6966993.778    439018.010   1031153.869
10 0 59620  51300.00000  0  -6623745.905    699000.446   2329319.043
10 0 59620  51480.00000  0  -6032397.737    921203.045   3541844.976
10 0 59620  51660.00000  0  -5215885.123   1091329.553   4624256.599
10 0 59620  51840.00000  0  -4205709.773   1197720.414   5536973.317
10 0 59620  52020.00000  0  -3040643.680   1231977.416   6246747.260
10 0 59620  52200.00000  0  -1765173.134   1189425.495   6727841.352
10 0 59620  52380.00000  0   -427749.187   1069394.604   6962912.294
10 0 59620  52560.00000  0    921073.351    875310.961   6943578.103
10 0 59620  52740.00000  0   2230539.605    614597.149   6670677.809
10 0 59620  52920.00000  0   3451587.719    298386.336   6154224.762
10 0 59620  53100.00000  0   4538677.205    -58941.128   5413054.755
10 0 59620  53280.00000  0   5451493.123   -440384.068   4474171.122
10 0 59620  53460.00000  0   6156467.104   -827087.527   3371800.190
10 0 59620  53640.00000  0   6628058.135  -1199219.493   2146174.574
10 0 59620  53820.00000  0   6849728.847  -1536918.851    842074.384
10 0 59620  54000.00000  0   6814567.710  -1821270.534   -492818.512
10 0 59620  54180.00000  0   6525522.416  -2035260.242  -1809694.654
10 0 59620  54360.00000  0   5995223.603  -2164654.351  -3060439.067
10 0 59620  54540.00000  0   5245411.279  -2198760.865  -4199417.302
10 0 59620  54720.00000  0   4306001.702  -2131032.956  -5185147.710
10 0 59620  54900.00000  0   3213845.684  -1959488.500  -5981797.808
10 0 59620  55080.00000  0   2011241.789  -1686927.636  -6560447.298
10 0 59620  55260.00000  0    744281.195  -1320940.348  -6900090.311
10 0 59620  55440.00000  0   -538917.766   -873706.451  -6988354.096
10 0 59620  55620.00000  0  -1790017.591   -361597.188  -6821922.608
10 0 59620  55800.00000  0  -2962258.881    195412.301  -6406663.180
10 0 59620  55980.00000  0  -4012191.324    774503.583  -5757450.690
10 0 59620  56160.00000  0  -4901290.893   1350926.127  -4897694.208
10 0 59620  56340.00000  0  -5597413.722   1899032.505  -3858560.921
10 0 59620  56520.00000  0  -6076024.689   2393403.102  -2677900.638
10 0 59620  56700.00000  0  -6321139.710   2810005.859  -1398894.597
10 0 59620  56880.00000  0  -6325931.501   3127338.354    -68468.728
10 0 59620  57060.00000  0  -6092955.520   3327490.750   1264471.635
10 0 59620  57240.00000  0  -5633970.971   3397068.229   2550905.963
10 0 59620  57420.00000  0  -4969365.178   3327921.999   3743567.697
10 0 59620  57600.00000  0  -4127218.467   3117648.378   4798731.781
10 0 59620  57780.00000  0  -3142063.187   2769831.619   5677838.228
10 0 59620  57960.00000  0  -2053410.540   2294027.570   6348889.811
10 0 59620  58140.00000  0   -904115.436   1705491.030   6787578.734
10 0 59620  58320.00000  0    261338.747   1024662.526   6978109.022
10 0 59620  58500.00000  0   1398562.403    276440.912   6913711.762
10 0 59620  58680.00000  0   2464937.300   -510731.213   6596852.491
10 0 59620  58860.00000  0   3421198.344  -1305942.801   6039132.252
10 0 59620  59040.00000  0   4232875.036  -2077017.565   5260882.544
10 0 59620  59220.00000  0   4871544.107  -2791805.752   4290457.614
10 0 59620  59400.00000  0   5315850.183  -3419518.903   3163241.391
10 0 59620  59580.00000  0   5552254.905  -3932054.860   1920383.592
10 0 59620  59760.00000  0   5575470.512  -4305249.205    607302.666
10 0 59620  59940.00000  0   5388557.249  -4519993.524   -727987.814
10 0 59620  60120.00000  0   5002676.938  -4563160.947  -2036665.643
10 0 59620  60300.00000  0   4436510.628  -4428287.419  -3270921.877
10 0 59620  60480.00000  0   3715371.631  -4115974.504  -4385733.774
10 0 59620  60660.00000  0   2870064.042  -3633995.796  -5340513.156
10 0 59620  60840.00000  0   1935547.583  -2997106.963  -6100563.209
10 0 59620  61020.00000  0    949481.207  -2226578.036  -6638295.902
10 0 59620  61200.00000  0    -49294.090  -1349469.000  -6934188.633
10 0 59620  61380.00000  0  -1022274.430   -397673.008  -6977449.800
10 0 59620  61560.00000  0  -1932756.775    593231.917  -6766387.966
10 0 59620  61740.00000  0  -2747207.183   1585290.050  -6308484.190
10 0 59620  61920.00000  0  -3436490.229   2539598.749  -5620165.301
10 0 59620  62100.00000  0  -3976927.544   3417823.481  -4726278.587
10 0 59620  62280.00000  0  -4351150.042   4183748.896  -3659259.395
10 0 59620  62460.00000  0  -4548697.706   4804800.037  -2458001.297
10 0 59620  62640.00000  0  -4566338.926   5253465.371  -1166461.721
10 0 59620  62820.00000  0  -4408091.077   5508550.914    167957.963
10 0 59620  63000.00000  0  -4084927.563   5556193.095   1496199.650
10 0 59620  63180.00000  0  -3614182.341   5390568.098   2769419.542
10 0 59620  63360.00000  0  -3018678.206   5014252.789   3940854.152
10 0 59620  63540.00000  0  -2325630.351   4438223.205   4967581.541
10 0 59620  63720.00000  0  -1565393.494   3681500.030   5812108.357
10 0 59620  63900.00000  0   -770116.701   2770461.816   6443721.983
10 0 59620  64080.00000  0     27625.406   1737867.455   6839561.347
10 0 59620  64260.00000  0    796163.363    621640.086   6985388.485
10 0 59620  64440.00000  0   1505979.897   -536541.613   6876051.906
10 0 59620  64620.00000  0   2130830.158  -1692795.755   6515641.065
10 0 59620  64800.00000  0   2648702.401  -2802689.148   5917333.155
10 0 59620  64980.00000  0   3042592.127  -3822937.515   5102933.920
10 0 59620  65160.00000  0   3301062.897  -4713096.458   4102117.883
10 0 59620  65340.00000  0   3418576.424  -5437182.924   2951383.730
10 0 59620  65520.00000  0   3395575.703  -5965159.318   1692745.994
10 0 59620  65700.00000  0   3238313.704  -6274209.750    372204.098
10 0 59620  65880.00000  0   2958436.418  -6349743.238   -961953.400
10 0 59620  66060.00000  0   2572337.924  -6186074.703  -2260947.669
10 0 59620  66240.00000  0   2100314.740  -5786737.431  -3477330.163
10 0 59620  66420.00000  0   1565566.055  -5164415.352  -4566743.142
10 0 59620  66600.00000  0    993094.487  -4340496.193  -5489537.838
10 0 59620  66780.00000  0    408570.631  -3344285.703  -6212190.784
10 0 59620  66960.00000  0   -162790.578  -2211924.146  -6708478.228
10 0 59620  67140.00000  0   -697292.983   -985053.537  -6960377.651
10 0 59620  67320.00000  0  -1173719.792    290712.184  -6958682.591
10 0 59620  67500.00000  0  -1574160.951   1567463.073  -6703320.997
10 0 59620  67680.00000  0  -1884682.041   2796763.553  -6203375.088
10 0 59620  67860.00000  0  -2095814.340   3931470.942  -5476804.198
10 0 59620  68040.00000  0  -2202851.695   4927550.896  -4549863.890
10 0 59620  68220.00000  0  -2205941.281   5745824.755  -3456219.053
10 0 59620  68400.00000  0  -2109958.426   6353570.646  -2235763.348
10 0 59620  68580.00000  0  -1924166.747   6725905.423   -933180.946
10 0 59620  68760.00000  0  -1661678.465   6846873.388    403707.395
10 0 59620  68940.00000  0  -1338736.909   6710181.499   1725747.717
10 0 59620  69120.00000  0   -973855.553   6319520.972   2984335.753
10 0 59620  69300.00000  0   -586861.512   5688450.675   4133265.759
10 0 59620  69480.00000  0   -197901.371   4839873.171   5130464.683
10 0 59620  69660.00000  0    173542.895   3805123.289   5939545.749
10 0 59620  69840.00000  0    509576.900   2622731.845   6531108.097
10 0 59620  70020.00000  0    794709.676   1336930.215   6883759.578
10 0 59620  70200.00000  0   1016532.280     -4040.590   6984835.309
10 0 59620  70380.00000  0   1166234.977  -1349747.024   6830805.910
10 0 59620  70560.00000  0   1238946.608  -2649450.319   6427379.938
10 0 59620  70740.00000  0   1233886.502  -3854009.491   5789295.410
10 0 59620  70920.00000  0   1154324.078  -4917735.898   4939801.295
10 0 59620  71100.00000  0   1007353.099  -5800133.373   3909846.946
10 0 59620  71280.00000  0    803488.387  -6467474.849   2736994.436
10 0 59620  71460.00000  0    556097.785  -6894140.794   1464069.733
10 0 59620  71640.00000  0    280692.703  -7063653.715    137602.132
10 0 59620  71820.00000  0     -5888.228  -6969358.457  -1193899.071
10 0 59620  72000.00000  0   -286361.240  -6614693.079  -2481759.403
10 0 59620  72180.00000  0   -543894.242  -6013042.524  -3678950.901
10 0 59620  72360.00000  0   -762975.587  -5187192.183  -4741829.449
10 0 59620  72540.00000  0   -930210.592  -4168406.346  -5631723.441
10 0 59620  72720.00000  0  -1035006.600  -2995189.567  -6316311.398
10 0 59620  72900.00000  0  -1070115.986  -1711792.983  -6770751.240
99
